STARLINK-36806          
1 67965U 26038E   26076.86119348 -.01075485  00000+0 -86108-2 0  9999
2 67965  97.2849  87.5757 0001864   2.1267 358.0005 15.73543570  4476
STARLINK-36820          
1 67966U 26038F   26076.79646110 -.00866836  00000+0 -67004-2 0  9995
2 67966  97.2850  87.5111 0000976  89.1419 270.9957 15.74234612  4462
STARLINK-36819          
1 67967U 26038G   26076.83335647 -.02560010  00000+0 -46473-1 0  9994
2 67967  97.2846  87.4808 0001609  64.3986 334.6702 15.52968936  4508
STARLINK-36812          
1 67968U 26038H   26076.79428421 -.00650957  00000+0 -48282-2 0  9992
2 67968  97.2854  87.5125 0001232  94.3948 265.7458 15.74596937  4463
STARLINK-36709          
1 67969U 26038J   26076.79184468 -.00810599  00000+0 -61822-2 0  9998
2 67969  97.2856  87.5158 0001013  54.9214 305.2145 15.74388800  4468
STARLINK-36319          
1 67970U 26038K   26076.83335647 -.02273090  00000+0 -23432-1 0  9997
2 67970  97.2843  87.5540 0001912  84.7554 128.7569 15.68370112  4487
STARLINK-36710          
1 67971U 26038L   26076.78998494  .00105311  00000+0  69802-3 0  9996
2 67971  97.2856  87.5188 0001202 129.0124 231.1248 15.75197662  4464
STARLINK-36894          
1 67972U 26038M   26076.78892295  .00093434  00000+0  62005-3 0  9999
2 67972  97.2861  87.5185 0001074  35.9962 324.1375 15.75205510  4466
STARLINK-36900          
1 67973U 26038N   26076.83335647 -.02772449  00000+0 -41965-1 0  9993
2 67973  97.2842  87.5360 0001738 129.4227  26.6034 15.58161442  4508
STARLINK-36901          
1 67974U 26038P   26076.78785872  .00131721  00000+0  86820-3 0  9996
2 67974  97.2861  87.5195 0001453 111.9189 248.2231 15.75249326  4466
STARLINK-36883          
1 67975U 26038Q   26076.83335647 -.02285422  00000+0 -20771-1 0  9997
2 67975  97.2854  87.5823 0001700  92.7267 196.1532 15.71407096  4512
STARLINK-36880          
1 67976U 26038R   26076.83335647 -.02232446  00000+0 -39151-1 0  9998
2 67976  97.2840  87.5171 0001714  74.6157  38.6255 15.54006922  4512
