CCSDS_OMM_VERS = 2.0
CREATION_DATE  = 
ORIGINATOR     = 

OBJECT_NAME    = STARLINK-36806
OBJECT_ID      = 2026-038E
CENTER_NAME    = EARTH
REF_FRAME      = TEME
TIME_SYSTEM    = UTC
MEAN_ELEMENT_THEORY = SGP/SGP4

EPOCH          = 2026-03-17T20:40:07.116672
MEAN_MOTION    = 15.73543570
ECCENTRICITY   = .0001864
INCLINATION    = 97.2849
RA_OF_ASC_NODE = 87.5757
ARG_OF_PERICENTER = 2.1267
MEAN_ANOMALY   = 358.0005

EPHEMERIS_TYPE = 0
CLASSIFICATION_TYPE = U
NORAD_CAT_ID   = 67965
ELEMENT_SET_NO = 999
REV_AT_EPOCH   = 447
BSTAR          = -.86108E-2
MEAN_MOTION_DOT = -.1075485E-1
MEAN_MOTION_DDOT = 0

CCSDS_OMM_VERS = 2.0
CREATION_DATE  = 
ORIGINATOR     = 

OBJECT_NAME    = STARLINK-36820
OBJECT_ID      = 2026-038F
CENTER_NAME    = EARTH
REF_FRAME      = TEME
TIME_SYSTEM    = UTC
MEAN_ELEMENT_THEORY = SGP/SGP4

EPOCH          = 2026-03-17T19:06:54.239040
MEAN_MOTION    = 15.74234612
ECCENTRICITY   = .0000976
INCLINATION    = 97.2850
RA_OF_ASC_NODE = 87.5111
ARG_OF_PERICENTER = 89.1419
MEAN_ANOMALY   = 270.9957

EPHEMERIS_TYPE = 0
CLASSIFICATION_TYPE = U
NORAD_CAT_ID   = 67966
ELEMENT_SET_NO = 999
REV_AT_EPOCH   = 446
BSTAR          = -.67004E-2
MEAN_MOTION_DOT = -.866836E-2
MEAN_MOTION_DDOT = 0

CCSDS_OMM_VERS = 2.0
CREATION_DATE  = 
ORIGINATOR     = 

OBJECT_NAME    = STARLINK-36819
OBJECT_ID      = 2026-038G
CENTER_NAME    = EARTH
REF_FRAME      = TEME
TIME_SYSTEM    = UTC
MEAN_ELEMENT_THEORY = SGP/SGP4

EPOCH          = 2026-03-17T20:00:01.999008
MEAN_MOTION    = 15.52968936
ECCENTRICITY   = .0001609
INCLINATION    = 97.2846
RA_OF_ASC_NODE = 87.4808
ARG_OF_PERICENTER = 64.3986
MEAN_ANOMALY   = 334.6702

EPHEMERIS_TYPE = 0
CLASSIFICATION_TYPE = U
NORAD_CAT_ID   = 67967
ELEMENT_SET_NO = 999
REV_AT_EPOCH   = 450
BSTAR          = -.46473E-1
MEAN_MOTION_DOT = -.256001E-1
MEAN_MOTION_DDOT = 0

CCSDS_OMM_VERS = 2.0
CREATION_DATE  = 
ORIGINATOR     = 

OBJECT_NAME    = STARLINK-36812
OBJECT_ID      = 2026-038H
CENTER_NAME    = EARTH
REF_FRAME      = TEME
TIME_SYSTEM    = UTC
MEAN_ELEMENT_THEORY = SGP/SGP4

EPOCH          = 2026-03-17T19:03:46.155744
MEAN_MOTION    = 15.74596937
ECCENTRICITY   = .0001232
INCLINATION    = 97.2854
RA_OF_ASC_NODE = 87.5125
ARG_OF_PERICENTER = 94.3948
MEAN_ANOMALY   = 265.7458

EPHEMERIS_TYPE = 0
CLASSIFICATION_TYPE = U
NORAD_CAT_ID   = 67968
ELEMENT_SET_NO = 999
REV_AT_EPOCH   = 446
BSTAR          = -.48282E-2
MEAN_MOTION_DOT = -.650957E-2
MEAN_MOTION_DDOT = 0

CCSDS_OMM_VERS = 2.0
CREATION_DATE  = 
ORIGINATOR     = 

OBJECT_NAME    = STARLINK-36709
OBJECT_ID      = 2026-038J
CENTER_NAME    = EARTH
REF_FRAME      = TEME
TIME_SYSTEM    = UTC
MEAN_ELEMENT_THEORY = SGP/SGP4

EPOCH          = 2026-03-17T19:00:15.380352
MEAN_MOTION    = 15.74388800
ECCENTRICITY   = .0001013
INCLINATION    = 97.2856
RA_OF_ASC_NODE = 87.5158
ARG_OF_PERICENTER = 54.9214
MEAN_ANOMALY   = 305.2145

EPHEMERIS_TYPE = 0
CLASSIFICATION_TYPE = U
NORAD_CAT_ID   = 67969
ELEMENT_SET_NO = 999
REV_AT_EPOCH   = 446
BSTAR          = -.61822E-2
MEAN_MOTION_DOT = -.810599E-2
MEAN_MOTION_DDOT = 0

CCSDS_OMM_VERS = 2.0
CREATION_DATE  = 
ORIGINATOR     = 

OBJECT_NAME    = STARLINK-36319
OBJECT_ID      = 2026-038K
CENTER_NAME    = EARTH
REF_FRAME      = TEME
TIME_SYSTEM    = UTC
MEAN_ELEMENT_THEORY = SGP/SGP4

EPOCH          = 2026-03-17T20:00:01.999008
MEAN_MOTION    = 15.68370112
ECCENTRICITY   = .0001912
INCLINATION    = 97.2843
RA_OF_ASC_NODE = 87.5540
ARG_OF_PERICENTER = 84.7554
MEAN_ANOMALY   = 128.7569

EPHEMERIS_TYPE = 0
CLASSIFICATION_TYPE = U
NORAD_CAT_ID   = 67970
ELEMENT_SET_NO = 999
REV_AT_EPOCH   = 448
BSTAR          = -.23432E-1
MEAN_MOTION_DOT = -.227309E-1
MEAN_MOTION_DDOT = 0

CCSDS_OMM_VERS = 2.0
CREATION_DATE  = 
ORIGINATOR     = 

OBJECT_NAME    = STARLINK-36710
OBJECT_ID      = 2026-038L
CENTER_NAME    = EARTH
REF_FRAME      = TEME
TIME_SYSTEM    = UTC
MEAN_ELEMENT_THEORY = SGP/SGP4

EPOCH          = 2026-03-17T18:57:34.698816
MEAN_MOTION    = 15.75197662
ECCENTRICITY   = .0001202
INCLINATION    = 97.2856
RA_OF_ASC_NODE = 87.5188
ARG_OF_PERICENTER = 129.0124
MEAN_ANOMALY   = 231.1248

EPHEMERIS_TYPE = 0
CLASSIFICATION_TYPE = U
NORAD_CAT_ID   = 67971
ELEMENT_SET_NO = 999
REV_AT_EPOCH   = 446
BSTAR          = .69802E-3
MEAN_MOTION_DOT = .105311E-2
MEAN_MOTION_DDOT = 0

CCSDS_OMM_VERS = 2.0
CREATION_DATE  = 
ORIGINATOR     = 

OBJECT_NAME    = STARLINK-36894
OBJECT_ID      = 2026-038M
CENTER_NAME    = EARTH
REF_FRAME      = TEME
TIME_SYSTEM    = UTC
MEAN_ELEMENT_THEORY = SGP/SGP4

EPOCH          = 2026-03-17T18:56:02.942880
MEAN_MOTION    = 15.75205510
ECCENTRICITY   = .0001074
INCLINATION    = 97.2861
RA_OF_ASC_NODE = 87.5185
ARG_OF_PERICENTER = 35.9962
MEAN_ANOMALY   = 324.1375

EPHEMERIS_TYPE = 0
CLASSIFICATION_TYPE = U
NORAD_CAT_ID   = 67972
ELEMENT_SET_NO = 999
REV_AT_EPOCH   = 446
BSTAR          = .62005E-3
MEAN_MOTION_DOT = .93434E-3
MEAN_MOTION_DDOT = 0

CCSDS_OMM_VERS = 2.0
CREATION_DATE  = 
ORIGINATOR     = 

OBJECT_NAME    = STARLINK-36900
OBJECT_ID      = 2026-038N
CENTER_NAME    = EARTH
REF_FRAME      = TEME
TIME_SYSTEM    = UTC
MEAN_ELEMENT_THEORY = SGP/SGP4

EPOCH          = 2026-03-17T20:00:01.999008
MEAN_MOTION    = 15.58161442
ECCENTRICITY   = .0001738
INCLINATION    = 97.2842
RA_OF_ASC_NODE = 87.5360
ARG_OF_PERICENTER = 129.4227
MEAN_ANOMALY   = 26.6034

EPHEMERIS_TYPE = 0
CLASSIFICATION_TYPE = U
NORAD_CAT_ID   = 67973
ELEMENT_SET_NO = 999
REV_AT_EPOCH   = 450
BSTAR          = -.41965E-1
MEAN_MOTION_DOT = -.2772449E-1
MEAN_MOTION_DDOT = 0

CCSDS_OMM_VERS = 2.0
CREATION_DATE  = 
ORIGINATOR     = 

OBJECT_NAME    = STARLINK-36901
OBJECT_ID      = 2026-038P
CENTER_NAME    = EARTH
REF_FRAME      = TEME
TIME_SYSTEM    = UTC
MEAN_ELEMENT_THEORY = SGP/SGP4

EPOCH          = 2026-03-17T18:54:30.993408
MEAN_MOTION    = 15.75249326
ECCENTRICITY   = .0001453
INCLINATION    = 97.2861
RA_OF_ASC_NODE = 87.5195
ARG_OF_PERICENTER = 111.9189
MEAN_ANOMALY   = 248.2231

EPHEMERIS_TYPE = 0
CLASSIFICATION_TYPE = U
NORAD_CAT_ID   = 67974
ELEMENT_SET_NO = 999
REV_AT_EPOCH   = 446
BSTAR          = .8682E-3
MEAN_MOTION_DOT = .131721E-2
MEAN_MOTION_DDOT = 0

CCSDS_OMM_VERS = 2.0
CREATION_DATE  = 
ORIGINATOR     = 

OBJECT_NAME    = STARLINK-36883
OBJECT_ID      = 2026-038Q
CENTER_NAME    = EARTH
REF_FRAME      = TEME
TIME_SYSTEM    = UTC
MEAN_ELEMENT_THEORY = SGP/SGP4

EPOCH          = 2026-03-17T20:00:01.999008
MEAN_MOTION    = 15.71407096
ECCENTRICITY   = .00017
INCLINATION    = 97.2854
RA_OF_ASC_NODE = 87.5823
ARG_OF_PERICENTER = 92.7267
MEAN_ANOMALY   = 196.1532

EPHEMERIS_TYPE = 0
CLASSIFICATION_TYPE = U
NORAD_CAT_ID   = 67975
ELEMENT_SET_NO = 999
REV_AT_EPOCH   = 451
BSTAR          = -.20771E-1
MEAN_MOTION_DOT = -.2285422E-1
MEAN_MOTION_DDOT = 0

CCSDS_OMM_VERS = 2.0
CREATION_DATE  = 
ORIGINATOR     = 

OBJECT_NAME    = STARLINK-36880
OBJECT_ID      = 2026-038R
CENTER_NAME    = EARTH
REF_FRAME      = TEME
TIME_SYSTEM    = UTC
MEAN_ELEMENT_THEORY = SGP/SGP4

EPOCH          = 2026-03-17T20:00:01.999008
MEAN_MOTION    = 15.54006922
ECCENTRICITY   = .0001714
INCLINATION    = 97.2840
RA_OF_ASC_NODE = 87.5171
ARG_OF_PERICENTER = 74.6157
MEAN_ANOMALY   = 38.6255

EPHEMERIS_TYPE = 0
CLASSIFICATION_TYPE = U
NORAD_CAT_ID   = 67976
ELEMENT_SET_NO = 999
REV_AT_EPOCH   = 451
BSTAR          = -.39151E-1
MEAN_MOTION_DOT = -.2232446E-1
MEAN_MOTION_DDOT = 0

